[{"OBJECT_NAME":"YAM-6","OBJECT_ID":"2024-043AE","EPOCH":"2026-03-09T22:02:57.551424","MEAN_MOTION":15.35277504,"ECCENTRICITY":0.00081711,"INCLINATION":97.5396,"RA_OF_ASC_NODE":207.5012,"ARG_OF_PERICENTER":216.2976,"MEAN_ANOMALY":143.7714,"EPHEMERIS_TYPE":0,"CLASSIFICATION_TYPE":"U","NORAD_CAT_ID":59126,"ELEMENT_SET_NO":999,"REV_AT_EPOCH":11207,"BSTAR":0.00038647304,"MEAN_MOTION_DOT":0.00013176,"MEAN_MOTION_DDOT":0},{"OBJECT_NAME":"STARLINK-36691","OBJECT_ID":"2026-026Q","EPOCH":"2026-03-09T22:00:01.999584","MEAN_MOTION":15.48626471,"ECCENTRICITY":0.00020438,"INCLINATION":97.2846,"RA_OF_ASC_NODE":123.5183,"ARG_OF_PERICENTER":78.8365,"MEAN_ANOMALY":168.343,"EPHEMERIS_TYPE":0,"CLASSIFICATION_TYPE":"U","NORAD_CAT_ID":67735,"ELEMENT_SET_NO":999,"REV_AT_EPOCH":548,"BSTAR":-0.039590806,"MEAN_MOTION_DOT":-0.01898481,"MEAN_MOTION_DDOT":0}]
